{
  "norad_id": 53727,
  "name": "STARLINK-4701",
  "history": [
    {
      "epoch": "2026-04-14T15:47:07.270656Z",
      "apogee_km": 540.4160743508137,
      "perigee_km": 538.9826986515309,
      "latitude_deg": 5.274567572420511e-05,
      "longitude_deg": 13.032150741319162,
      "height_km": 540.3156218733036,
      "semi_major_axis_km": 6917.836386501172,
      "eccentricity": 0.0001036,
      "inclination_deg": 53.2172,
      "raan_deg": 92.6434,
      "arg_perigee_deg": 67.0024,
      "mean_anomaly_deg": 293.1078,
      "mean_motion_rev_day": 15.08854396
    },
    {
      "epoch": "2026-04-15T15:37:56.460288Z",
      "apogee_km": 540.6392800458425,
      "perigee_km": 538.8738336101414,
      "latitude_deg": -4.102487714324055e-06,
      "longitude_deg": 9.888892121839714,
      "height_km": 540.5370383056049,
      "semi_major_axis_km": 6917.893556827992,
      "eccentricity": 0.0001276,
      "inclination_deg": 53.2161,
      "raan_deg": 88.1845,
      "arg_perigee_deg": 82.5,
      "mean_anomaly_deg": 277.6137,
      "mean_motion_rev_day": 15.08835692
    },
    {
      "epoch": "2026-04-16T09:07:10.833600Z",
      "apogee_km": 540.8241255657276,
      "perigee_km": 538.4942118161134,
      "latitude_deg": 1.007280046798238e-05,
      "longitude_deg": 103.59063632207263,
      "height_km": 540.768625489079,
      "semi_major_axis_km": 6917.79616869092,
      "eccentricity": 0.0001684,
      "inclination_deg": 53.2169,
      "raan_deg": 84.9143,
      "arg_perigee_deg": 100.5959,
      "mean_anomaly_deg": 259.5223,
      "mean_motion_rev_day": 15.08867554
    },
    {
      "epoch": "2026-04-17T21:41:04.497792Z",
      "apogee_km": 540.625421333385,
      "perigee_km": 538.9692678512911,
      "latitude_deg": 7.872543770710094e-05,
      "longitude_deg": -93.22377857414256,
      "height_km": 540.7456327782177,
      "semi_major_axis_km": 6917.934344592338,
      "eccentricity": 0.0001197,
      "inclination_deg": 53.217,
      "raan_deg": 78.0751,
      "arg_perigee_deg": 93.6292,
      "mean_anomaly_deg": 266.4838,
      "mean_motion_rev_day": 15.08822348
    },
    {
      "epoch": "2026-04-18T15:10:19.231392Z",
      "apogee_km": 540.6483229293217,
      "perigee_km": 538.910542321446,
      "latitude_deg": -3.043988001760912e-05,
      "longitude_deg": 0.47596729820980205,
      "height_km": 540.7605455916425,
      "semi_major_axis_km": 6917.916432625383,
      "eccentricity": 0.0001256,
      "inclination_deg": 53.2172,
      "raan_deg": 74.8045,
      "arg_perigee_deg": 95.6324,
      "mean_anomaly_deg": 264.4811,
      "mean_motion_rev_day": 15.08828208
    },
    {
      "epoch": "2026-04-19T15:01:06.217824Z",
      "apogee_km": 540.6400592439122,
      "perigee_km": 538.8704624035927,
      "latitude_deg": 1.2366075955487483e-05,
      "longitude_deg": -2.660014702086395,
      "height_km": 540.7472163530659,
      "semi_major_axis_km": 6917.892260823752,
      "eccentricity": 0.0001279,
      "inclination_deg": 53.2172,
      "raan_deg": 70.3436,
      "arg_perigee_deg": 96.2388,
      "mean_anomaly_deg": 263.875,
      "mean_motion_rev_day": 15.08836116
    },
    {
      "epoch": "2026-04-20T03:44:11.104512Z",
      "apogee_km": 540.6310402053678,
      "perigee_km": 538.8516235408442,
      "latitude_deg": -8.61654878064051e-06,
      "longitude_deg": 163.6679969924511,
      "height_km": 540.7608650662345,
      "semi_major_axis_km": 6917.878331873106,
      "eccentricity": 0.00012861,
      "inclination_deg": 53.2173,
      "raan_deg": 67.9643,
      "arg_perigee_deg": 97.9932,
      "mean_anomaly_deg": 262.1206,
      "mean_motion_rev_day": 15.08840673
    },
    {
      "epoch": "2026-04-21T06:45:43.464384Z",
      "apogee_km": 540.6214002989291,
      "perigee_km": 538.7992393148916,
      "latitude_deg": 2.3225058011409196e-05,
      "longitude_deg": 112.11838102910053,
      "height_km": 540.6686524083304,
      "semi_major_axis_km": 6917.84731980691,
      "eccentricity": 0.0001317,
      "inclination_deg": 53.2173,
      "raan_deg": 62.9094,
      "arg_perigee_deg": 93.9382,
      "mean_anomaly_deg": 266.1761,
      "mean_motion_rev_day": 15.08850819
    },
    {
      "epoch": "2026-04-22T12:58:03.743040Z",
      "apogee_km": 540.7293060395805,
      "perigee_km": 538.8144288650692,
      "latitude_deg": -5.856774756817674e-05,
      "longitude_deg": 12.143121355677112,
      "height_km": 540.6609201201129,
      "semi_major_axis_km": 6917.908867452325,
      "eccentricity": 0.0001384,
      "inclination_deg": 53.2182,
      "raan_deg": 57.2592,
      "arg_perigee_deg": 89.5984,
      "mean_anomaly_deg": 270.5166,
      "mean_motion_rev_day": 15.08830683
    },
    {
      "epoch": "2026-04-23T12:48:50.345856Z",
      "apogee_km": 540.6710496484866,
      "perigee_km": 538.8037769868442,
      "latitude_deg": 5.481577728589625e-05,
      "longitude_deg": 9.008893329265243,
      "height_km": 540.5613839120082,
      "semi_major_axis_km": 6917.874413317665,
      "eccentricity": 0.00013496,
      "inclination_deg": 53.2183,
      "raan_deg": 52.7984,
      "arg_perigee_deg": 85.5866,
      "mean_anomaly_deg": 274.5281,
      "mean_motion_rev_day": 15.08841955
    },
    {
      "epoch": "2026-04-24T04:42:42.009984Z",
      "apogee_km": 540.7740179764605,
      "perigee_km": 538.7400187771773,
      "latitude_deg": 3.344486783051867e-07,
      "longitude_deg": 126.91728991549903,
      "height_km": 540.5684490003689,
      "semi_major_axis_km": 6917.894018376818,
      "eccentricity": 0.00014701,
      "inclination_deg": 53.2178,
      "raan_deg": 49.825,
      "arg_perigee_deg": 85.2525,
      "mean_anomaly_deg": 274.8635,
      "mean_motion_rev_day": 15.08835541
    },
    {
      "epoch": "2026-04-25T02:58:05.336832Z",
      "apogee_km": 540.7880042479155,
      "perigee_km": 538.6816506338964,
      "latitude_deg": -1.8932953050394985e-05,
      "longitude_deg": 147.99133851652311,
      "height_km": 540.3294056985877,
      "semi_major_axis_km": 6917.871827440906,
      "eccentricity": 0.00015224,
      "inclination_deg": 53.2178,
      "raan_deg": 45.6603,
      "arg_perigee_deg": 73.3908,
      "mean_anomaly_deg": 286.7251,
      "mean_motion_rev_day": 15.08842801
    },
    {
      "epoch": "2026-04-26T21:53:30.288768Z",
      "apogee_km": 540.6972237464006,
      "perigee_km": 538.7653398500261,
      "latitude_deg": -1.1162546300795694e-05,
      "longitude_deg": -145.65113117112296,
      "height_km": 540.615598580201,
      "semi_major_axis_km": 6917.868281798213,
      "eccentricity": 0.00013963,
      "inclination_deg": 53.2186,
      "raan_deg": 37.6346,
      "arg_perigee_deg": 89.3196,
      "mean_anomaly_deg": 270.7956,
      "mean_motion_rev_day": 15.08843961
    },
    {
      "epoch": "2026-04-27T12:11:58.551648Z",
      "apogee_km": 540.785388237282,
      "perigee_km": 538.6948057785658,
      "latitude_deg": -1.820580720128495e-05,
      "longitude_deg": -3.535200494147856,
      "height_km": 540.4415470648539,
      "semi_major_axis_km": 6917.877097007923,
      "eccentricity": 0.0001511,
      "inclination_deg": 53.2182,
      "raan_deg": 34.9559,
      "arg_perigee_deg": 79.2945,
      "mean_anomaly_deg": 280.8217,
      "mean_motion_rev_day": 15.08841077
    },
    {
      "epoch": "2026-04-28T04:05:50.222688Z",
      "apogee_km": 540.7740333299253,
      "perigee_km": 538.735192313794,
      "latitude_deg": 1.7071589592248694e-05,
      "longitude_deg": 114.37353547882245,
      "height_km": 540.7031963718548,
      "semi_major_axis_km": 6917.89161282186,
      "eccentricity": 0.00014736,
      "inclination_deg": 53.2182,
      "raan_deg": 31.9828,
      "arg_perigee_deg": 92.9775,
      "mean_anomaly_deg": 267.1386,
      "mean_motion_rev_day": 15.08836328
    },
    {
      "epoch": "2026-04-29T18:15:05.796000Z",
      "apogee_km": 540.7750793981086,
      "perigee_km": 538.7467517292653,
      "latitude_deg": -5.040486946472415e-06,
      "longitude_deg": -106.64491146660217,
      "height_km": 540.7725754813079,
      "semi_major_axis_km": 6917.897915563686,
      "eccentricity": 0.0001466,
      "inclination_deg": 53.2185,
      "raan_deg": 24.8462,
      "arg_perigee_deg": 96.5664,
      "mean_anomaly_deg": 263.5495,
      "mean_motion_rev_day": 15.08834266
    },
    {
      "epoch": "2026-04-30T10:08:57.364224Z",
      "apogee_km": 540.7211745239238,
      "perigee_km": 538.7880388933463,
      "latitude_deg": 6.30907764127318e-05,
      "longitude_deg": 11.265577842475327,
      "height_km": 540.6297210816695,
      "semi_major_axis_km": 6917.891606708635,
      "eccentricity": 0.00013972,
      "inclination_deg": 53.2191,
      "raan_deg": 21.8744,
      "arg_perigee_deg": 88.7722,
      "mean_anomaly_deg": 271.3431,
      "mean_motion_rev_day": 15.0883633
    },
    {
      "epoch": "2026-05-02T09:50:31.238592Z",
      "apogee_km": 540.6997211200123,
      "perigee_km": 538.773785067151,
      "latitude_deg": -8.198504742733925e-06,
      "longitude_deg": 4.994707760260613,
      "height_km": 540.5525906717288,
      "semi_major_axis_km": 6917.873753093581,
      "eccentricity": 0.0001392,
      "inclination_deg": 53.2198,
      "raan_deg": 12.9534,
      "arg_perigee_deg": 85.2292,
      "mean_anomaly_deg": 274.8859,
      "mean_motion_rev_day": 15.08842171
    },
    {
      "epoch": "2026-05-03T20:49:00.200352Z",
      "apogee_km": 540.8270885276097,
      "perigee_km": 538.6147575638188,
      "latitude_deg": -2.922369154204266e-06,
      "longitude_deg": -167.6038266070957,
      "height_km": 540.5499723582051,
      "semi_major_axis_km": 6917.8579230457135,
      "eccentricity": 0.0001599,
      "inclination_deg": 53.2188,
      "raan_deg": 6.4119,
      "arg_perigee_deg": 86.5545,
      "mean_anomaly_deg": 273.563,
      "mean_motion_rev_day": 15.0884735
    }
  ]
}